STARLINK-3178           
1 51467U 22010M   26068.86924969 -.00002210  00000+0 -12085-3 0  9998
2 51467  53.2164 278.3148 0001252  85.3546 274.7589 15.08831514226547
LEMUR-2-STELLA          
1 60533U 24149BT  26068.72657350  .00013685  00000+0  85776-3 0  9992
2 60533  97.6764 150.9122 0001299  95.1117 265.0260 15.09464064 85488
